LUCH 5V (SDCM/PRN 141)  
1 39727U 14023A   22316.53535292 -.00000259  00000+0  00000+0 0  9991
2 39727   1.8510  76.7993 0003330 177.2645  85.1003  1.00272724549344
GPS BIIF-6  (PRN 06)    
1 39741U 14026A   22315.20970076 -.00000100  00000+0  00000+0 0  9991
2 39741  56.6226  22.5241 0028062 304.4592  55.3271  2.00578249 62181
COSMOS 2500 (755)       
1 40001U 14032A   22315.74798847 -.00000073  00000+0  00000+0 0  9991
2 40001  65.7662 358.0601 0008189 209.2482 268.3976  2.13102274 65469
GPS BIIF-7  (PRN 09)    
1 40105U 14045A   22314.79794560  .00000042  00000+0  00000+0 0  9997
2 40105  54.7252 140.9600 0024230 112.1772 248.1223  2.00557239 59716
GSAT0201 (PRN E18)      
1 40128U 14050A   22315.35595522 -.00000094  00000+0  00000+0 0  9996
2 40128  50.1816 326.4270 1617011 129.3800 246.1247  1.85519576 53946
GSAT0202 (PRN E14)      
1 40129U 14050B   22316.15543377 -.00000088  00000+0  00000+0 0  9990
2 40129  50.2047 325.4599 1614214 130.2201 245.0921  1.85520272 56096
IRNSS-1C                
1 40269U 14061A   22315.86299491 -.00000151  00000+0  00000+0 0  9990
2 40269   3.2763 122.7894 0018082  10.0358 311.8490  1.00274133 29652
GPS BIIF-8  (PRN 03)    
1 40294U 14068A   22315.16463289 -.00000032  00000+0  00000+0 0  9994
2 40294  55.9322  82.1468 0042484  58.7510 301.6417  2.00551746 58852
COSMOS 2501 (702K)      
1 40315U 14075A   22315.65823865  .00000011  00000+0  00000+0 0  9996
2 40315  63.6700 236.0186 0018345 210.3262   7.1902  2.13101288 61866
GPS BIIF-9  (PRN 26)    
1 40534U 15013A   22315.80563381 -.00000014  00000+0  00000+0 0  9997
2 40534  53.6174 258.5888 0073535  20.9756 339.3231  2.00573055 55483
GSAT0203 (PRN E26)      
1 40544U 15017A   22315.26467400 -.00000099  00000+0  00000+0 0  9990
2 40544  56.8384  17.3649 0004438 238.6709 121.3426  1.70476370 46809
GSAT0204 (PRN E22)      
1 40545U 15017B   22314.93117251 -.00000100  00000+0  00000+0 0  9993
2 40545  56.8442  17.3870 0004516 228.3436 131.6743  1.70475855  9847
IRNSS-1D                
1 40547U 15018A   22315.79285642 -.00000284  00000+0  00000+0 0  9994
2 40547  28.6754 262.6732 0018094 185.2551   0.1737  1.00276871 28078
BEIDOU 17 (C31)         
1 40549U 15019A   22315.96368789 -.00000165  00000+0  00000+0 0  9998
2 40549  51.6302 311.0373 0038344 200.0442 341.8959  1.00265107 27913
GPS BIIF-10 (PRN 08)    
1 40730U 15033A   22314.96621606 -.00000069  00000+0  00000+0 0  9998
2 40730  55.0889 320.7693 0077321   7.7271 352.4082  2.00570596 53630
BEIDOU 18 (C57)         
1 40748U 15037A   22315.59680781 -.00000096  00000+0  00000+0 0  9990
2 40748  55.8095 346.7893 0002160 322.7992 214.4239  1.86233278 49659
BEIDOU 19 (C58)         
1 40749U 15037B   22316.20085162 -.00000094  00000+0  00000+0 0  9990
2 40749  55.8129 346.7601 0005019 293.0939  63.2396  1.86232910 49658
GSAT0205 (PRN E24)      
1 40889U 15045A   22315.28529252 -.00000020  00000+0  00000+0 0  9993
2 40889  55.5339 257.9075 0005091   3.6446 356.3484  1.70472999 44610
GSAT0206 (PRN E30)      
1 40890U 15045B   22314.33285394 -.00000024  00000+0  00000+0 0  9990
2 40890  55.5336 257.9296 0003596 347.6663  12.3080  1.70473022 44624
BEIDOU 20 (C18)         
1 40938U 15053A   22315.85744083 -.00000133  00000+0  00000+0 0  9996
2 40938  51.2758 274.1756 0045268 199.7725 340.4716  1.00259716 26173
GPS BIIF-11 (PRN 10)    
1 41019U 15062A   22315.51606113 -.00000030  00000+0  00000+0 0  9997
2 41019  55.9195  81.9786 0083057 218.0988 141.2927  2.00562587 51488
GSAT-15 (GAGAN/PRN 139) 
1 41028U 15065A   22315.53729934 -.00000249  00000+0  00000+0 0  9991
2 41028   0.0094 254.2002 0002445 311.5582 131.8508  1.00273104 25635
GSAT0209 (PRN E09)      
1 41174U 15079A   22315.09311178  .00000056  00000+0  00000+0 0  9991
2 41174  55.1968 137.3706 0001846 344.7409  15.2858  1.70474491 42372
GSAT0208 (PRN E08)      
1 41175U 15079B   22315.89919149  .00000058  00000+0  00000+0 0  9994
2 41175  55.1960 137.3471 0001437   1.8174 358.2124  1.70474426 42969
IRNSS-1E                
1 41241U 16003A   22315.76160347 -.00000287  00000+0  00000+0 0  9995
2 41241  30.3093  82.3332 0022151 179.8821 174.6666  1.00270316 25025
GPS BIIF-12 (PRN 32)    
1 41328U 16007A   22315.10471782  .00000042  00000+0  00000+0 0  9999
2 41328  54.9387 141.6545 0063725 229.6452 129.8383  2.00563983 49480
COSMOS 2514 (751)       
1 41330U 16008A   22315.35462912 -.00000073  00000+0  00000+0 0  9990
2 41330  65.5648 357.7282 0012211 217.9935 141.9854  2.13102737 52627
IRNSS-1F                
1 41384U 16015A   22316.16426990  .00000171  00000+0  00000+0 0  9991
2 41384   2.3858 146.2938 0020062 178.7662 177.8980  1.00278432 24494
BEIDOU IGSO-6 (C13)     
1 41434U 16021A   22316.23041953 -.00000156  00000+0  00000+0 0  9998
2 41434  58.3205  51.3116 0049293 219.7552 315.6743  1.00295423 24311
IRNSS-1G                
1 41469U 16027A   22316.47058935 -.00000322  00000+0  00000+0 0  9991
2 41469   2.3027 148.7702 0000672 283.8691 277.9356  1.00273851 24003
GSAT0211 (PRN E02)      
1 41549U 16030A   22316.01828847 -.00000018  00000+0  00000+0 0  9993
2 41549  55.6786 257.8316 0004706 327.6262  32.3388  1.70473076 40263
GSAT0210 (PRN E01)      
1 41550U 16030B   22315.13755928 -.00000021  00000+0  00000+0 0  9990
2 41550  55.6787 257.8572 0003980 299.0564  60.8922  1.70474509 40262
COSMOS 2516 (753)       
1 41554U 16032A   22315.47743059  .00000011  00000+0  00000+0 0  9993
2 41554  63.8953 236.3435 0014351 214.8606 145.0780  2.13106396 50238
BEIDOU-2 G7 (C03)       
1 41586U 16037A   22316.23209777 -.00000344  00000+0  00000+0 0  9992
2 41586   1.7044  69.0793 0007390 346.8488 189.4734  1.00267289 23619
E 117 W B (WAAS/PRN 131)
1 41589U 16038B   22314.81737255 -.00000003  00000+0  00000+0 0  9997
2 41589   0.0136 134.3365 0000346 324.4495 128.4489  1.00271509 23521
GSAT0207 (PRN E07)      
1 41859U 16069A   22315.97375125  .00000058  00000+0  00000+0 0  9992
2 41859  54.8593 137.4911 0001591 311.0954  48.9202  1.70473968 37233
GSAT0212 (PRN E03)      
1 41860U 16069B   22315.24061151  .00000056  00000+0  00000+0 0  9993
2 41860  54.8560 137.5091 0001672  30.0261 330.0156  1.70473152 37258
GSAT0213 (PRN E04)      
1 41861U 16069C   22315.01928246  .00000056  00000+0  00000+0 0  9996
2 41861  54.8583 137.5206 0001607 248.1523 111.8637  1.70473315 37118
GSAT0214 (PRN E05)      
1 41862U 16069D   22315.16646225  .00000056  00000+0  00000+0 0  9997
2 41862  54.8567 137.5109 0000727 229.9085 130.1175  1.70473189 37249
SES-15 (WAAS/PRN 133)   
1 42709U 17026A   22316.50631215  .00000070  00000+0  00000+0 0  9990
2 42709   0.0228   1.2659 0000542 247.4890 215.9881  1.00268277 21026
QZS-2 (QZSS/PRN 184)    
1 42738U 17028A   22316.21114539 -.00000216  00000+0  00000+0 0  9990
2 42738  41.5314 262.0775 0764223 269.0358  94.4525  1.00295765 19970
QZS-3 (QZSS/PRN 189)    
1 42917U 17048A   22316.10674319 -.00000338  00000+0  00000+0 0  9991
2 42917   0.0540 197.9630 0002330  53.1350 325.6000  1.00270753 19207
COSMOS 2522 (752)       
1 42939U 17055A   22316.39449116  .00000009  00000+0  00000+0 0  9993
2 42939  64.1291 236.7486 0008131 246.5219 311.3314  2.13102071 40007
QZS-4 (QZSS/PRN 185)    
1 42965U 17062A   22315.71585465 -.00000342  00000+0  00000+0 0  9994
2 42965  40.7317   0.2311 0750830 270.6616 176.0248  1.00266614 18641
BEIDOU-3 M1 (C19)       
1 43001U 17069A   22315.78674219  .00000013  00000+0  00000+0 0  9990
2 43001  55.6435 106.7478 0007308 288.9351  98.4532  1.86231356 34143
BEIDOU-3 M2 (C20)       
1 43002U 17069B   22315.72128016  .00000013  00000+0  00000+0 0  9994
2 43002  55.6423 106.7858 0005388 324.1434  62.1834  1.86231197 34139
GSAT0215 (PRN E21)      
1 43055U 17079A   22315.06968469 -.00000021  00000+0  00000+0 0  9994
2 43055  55.6551 257.6880 0003334 295.9406  64.0134  1.70473762 30581
GSAT0216 (PRN E25)      
1 43056U 17079B   22315.94840071 -.00000018  00000+0  00000+0 0  9996
2 43056  55.6555 257.6635 0004948 293.0138  66.9279  1.70473874 30582
GSAT0217 (PRN E27)      
1 43057U 17079C   22314.99549655 -.00000021  00000+0  00000+0 0  9999
2 43057  55.6537 257.6893 0004723 304.2507  55.6924  1.70473857 30588
GSAT0218 (PRN E31)      
1 43058U 17079D   22313.45575596 -.00000028  00000+0  00000+0 0  9990
2 43058  55.6548 257.7291 0005399 286.5832  73.3348  1.70473843 30589
BEIDOU-3 M3 (C27)       
1 43107U 18003A   22315.44686749 -.00000099  00000+0  00000+0 0  9995
2 43107  55.2624 347.6473 0003116  58.8768 309.8299  1.86232435 32894
BEIDOU-3 M4 (C28)       
1 43108U 18003B   22315.36322414 -.00000099  00000+0  00000+0 0  9993
2 43108  55.2557 347.6378 0004337 247.0474 108.6394  1.86230823 32885
BEIDOU-3 M5 (C21)       
1 43207U 18018A   22315.27671566  .00000009  00000+0  00000+0 0  9994
2 43207  55.6016 106.8736 0003693   9.5334 350.4531  1.86231454 32276
BEIDOU-3 M6 (C22)       
1 43208U 18018B   22315.88035425  .00000014  00000+0  00000+0 0  9996
2 43208  55.6018 106.8580 0005088 306.9644  52.9727  1.86231493 32289
BEIDOU-3 M7 (C29)       
1 43245U 18029A   22315.77643637 -.00000096  00000+0  00000+0 0  9998
2 43245  55.1696 345.3934 0001472 249.6939 250.5194  1.86232573 31433
BEIDOU-3 M8 (C30)       
1 43246U 18029B   22315.61634652 -.00000097  00000+0  10000-3 0  9995
2 43246  55.1668 345.4278 0003638 336.4115 103.1241  1.86232815 31426
IRNSS-1I                
1 43286U 18035A   22315.45155644  .00000107  00000+0  00000+0 0  9993
2 43286  29.3998  94.9688 0021388 178.3371 354.8837  1.00275835 16906
COSMOS 2527 (756)       
1 43508U 18053A   22316.37890826  .00000047  00000+0  00000+0 0  9993
2 43508  65.0048 117.8782 0007543 212.1569   5.7783  2.13102473 34295
BEIDOU IGSO-7 (C16)     
1 43539U 18057A   22315.53462459 -.00000072  00000+0  00000+0 0  9994
2 43539  55.0895 174.4307 0051260 226.1767 316.6751  1.00265574 15981
GSAT0221 (PRN E15)      
1 43564U 18060A   22312.76795230 -.00000103  00000+0  00000+0 0  9999
2 43564  57.2193  17.2854 0004852 261.3354  98.6635  1.70476210 26723
